IRIDIUM 155             
1 43573U 18061E   23300.46831503  .00000421  00000+0  14313-3 0  9997
2 43573  86.3918  99.4706 0001878  89.8873 270.2538 14.34217233275226
IRIDIUM 154             
1 43574U 18061F   23300.37951761  .00000158  00000+0  49436-4 0  9999
2 43574  86.3922  99.5945 0002272  86.1382 274.0073 14.34218508275268
IRIDIUM 163             
1 43575U 18061G   23300.50002563  .00000137  00000+0  41942-4 0  9993
2 43575  86.3921  99.4894 0002223  90.6843 269.4607 14.34219228275258
IRIDIUM 156             
1 43576U 18061H   23300.47466260  .00000140  00000+0  43079-4 0  9995
2 43576  86.3921  99.5060 0002028  97.2083 262.9343 14.34217895275249
IRIDIUM 164             
1 43577U 18061J   23300.45562787  .00000114  00000+0  33661-4 0  9992
2 43577  86.3923  99.5394 0002208  95.0530 265.0918 14.34218803275281
IRIDIUM 159             
1 43578U 18061K   23300.49368397  .00000137  00000+0  42017-4 0  9998
2 43578  86.3920  99.4805 0002099  88.3590 271.7846 14.34218100275255
IRIDIUM 180             
1 43922U 19002A   23300.56295554 -.00000120  00000+0 -49856-4 0  9991
2 43922  86.4009  36.3061 0002243  96.0446 264.1006 14.34213769250879
IRIDIUM 176             
1 43923U 19002B   23300.51267620  .00001736  00000+0  27154-3 0  9998
2 43923  86.6141  36.3580 0002724  98.7832 261.3694 14.72218731257467
IRIDIUM 168             
1 43924U 19002C   23300.55661057  .00000465  00000+0  15887-3 0  9993
2 43924  86.4015  36.3580 0002257  91.4515 268.6940 14.34216756250858
IRIDIUM 173             
1 43925U 19002D   23300.54392433  .00000512  00000+0  17563-3 0  9998
2 43925  86.4011  36.2917 0002212  91.8226 268.3223 14.34218225250834
IRIDIUM 169             
1 43926U 19002E   23300.41788285  .00000304  00000+0  92840-4 0  9990
2 43926  86.4216  67.9570 0001051 291.6325  68.4761 14.38599464251667
IRIDIUM 172             
1 43927U 19002F   23300.53757780  .00000244  00000+0  80014-4 0  9993
2 43927  86.4013  36.2993 0002238  92.5173 267.6279 14.34215236250842
IRIDIUM 175             
1 43928U 19002G   23300.30266173  .00001690  00000+0  26434-3 0  9991
2 43928  86.1564  22.8194 0002364  95.6919 264.4567 14.72209762257422
IRIDIUM 171             
1 43929U 19002H   23300.30924558  .00000027  00000+0  25776-5 0  9993
2 43929  86.4023  36.5941 0002228  95.5344 264.6106 14.34214680250807
IRIDIUM 170             
1 43930U 19002J   23300.51885105  .00000191  00000+0  26368-4 0  9991
2 43930  86.6145  36.3611 0002164  97.5068 262.6395 14.72221548257473
IRIDIUM 167             
1 43931U 19002K   23300.51220712  .00000436  00000+0  14871-3 0  9996
2 43931  86.4011  36.3241 0002200  96.7625 263.3822 14.34215673250830
IRIDIUM 181             
1 56726U 23068S   23300.09432066  .00000587  00000+0  16752-3 0  9996
2 56726  86.8601  78.8823 0002638 121.9970 238.1488 14.43603287 23367
IRIDIUM 177             
1 56727U 23068T   23300.59397108  .00002495  00000+0  32485-3 0  9990
2 56727  86.1974  66.2455 0002314  91.6721 268.4765 14.80227778 23827
IRIDIUM 174             
1 56728U 23068U   23300.38573492  .00002654  00000+0  34580-3 0  9995
2 56728  86.1978  66.4291 0002097  88.1450 272.0011 14.80227039 23791
IRIDIUM 178             
1 56729U 23068V   23300.51547724  .00002392  00000+0  31141-3 0  9999
2 56729  86.5765  72.7589 0002266  85.9729 274.1751 14.80227870 23812
IRIDIUM 179             
1 56730U 23068W   23300.44249164  .00002591  00000+0  33764-3 0  9994
2 56730  86.6770  73.9810 0002304  90.4493 269.6993 14.80228052 23802
